ONEWEB-0615             
1 54676U 22166AL  25230.23909065  .00000034  00000+0  51691-4 0  9993
2 54676  87.9254 304.4391 0001997  97.1668 262.9693 13.21828236131426
ONEWEB-0655             
1 54677U 22166AM  25230.59079781 -.00000021  00000+0 -82129-4 0  9994
2 54677  87.9253 304.3741 0002246  92.0366 268.1025 13.21825155131469
ONEWEB-0659             
1 54678U 22166AN  25230.45673386  .00000092  00000+0  19027-3 0  9993
2 54678  87.9253 304.4016 0001875 100.2016 259.9329 13.21827412131538
ONEWEB-0685             
1 54679U 22166AP  25230.45831532  .00000082  00000+0  16778-3 0  9992
2 54679  87.9256 304.3968 0002268 100.8752 259.2637 13.21824074131421
ONEWEB-0712             
1 54680U 22166AQ  25230.59212186 -.00000017  00000+0 -77003-4 0  9996
2 54680  87.9025 289.0799 0002297  83.1527 276.9865 13.16593329132243
ONEWEB-0714             
1 54681U 22166AR  25230.46461137  .00000051  00000+0  91290-4 0  9995
2 54681  87.9256 304.3890 0002237  97.4997 262.6391 13.21827581131540
ONEWEB-0532             
1 55140U 23004A   25230.57957191  .00000047  00000+0  87315-4 0  9998
2 55140  87.9032  66.0710 0001760 102.3379 257.7949 13.17645497127735
ONEWEB-0533             
1 55141U 23004B   25230.56718002  .00000491  00000+0  13291-2 0  9997
2 55141  87.8862  50.8061 0001986  89.4687 270.6669 13.12442483128361
ONEWEB-0541             
1 55142U 23004C   25230.58931638  .00000246  00000+0  65922-3 0  9999
2 55142  87.8784  81.3507 0001571  86.0099 274.1208 13.11415691126286
ONEWEB-0543             
1 55143U 23004D   25230.49245266  .00000103  00000+0  22785-3 0  9997
2 55143  87.9129  35.6305 0001936  84.6921 275.4432 13.18685775129805
ONEWEB-0544             
1 55144U 23004E   25230.48585113  .00000135  00000+0  30881-3 0  9996
2 55144  87.9128  35.6218 0001705  86.2800 273.8527 13.18686414129804
ONEWEB-0560             
1 55145U 23004F   25230.47925967  .00000134  00000+0  30591-3 0  9998
2 55145  87.9136  35.5998 0001624  84.2904 275.8413 13.18685996129812
ONEWEB-0565             
1 55146U 23004G   25230.47264442  .00000114  00000+0  25711-3 0  9999
2 55146  87.9128  35.6570 0001287 100.6387 259.4890 13.18687953129805
ONEWEB-0567             
1 55147U 23004H   25230.46604881  .00000093  00000+0  20227-3 0  9997
2 55147  87.9134  35.6169 0001409  90.8286 269.3007 13.18688052129802
ONEWEB-0569             
1 55148U 23004J   25230.43071792 -.00000025  00000+0 -10453-3 0  9991
2 55148  87.8995  20.3441 0001073  65.3118 294.8123 13.13468798130430
ONEWEB-0570             
1 55149U 23004K   25230.45616346  .00000081  00000+0  17230-3 0  9994
2 55149  87.9130  35.6205 0001682 111.8289 248.3022 13.18686043129791
ONEWEB-0571             
1 55150U 23004L   25230.52543596 -.00000005  00000+0 -44771-4 0  9999
2 55150  87.9127  35.6126 0000540  90.6942 269.4252 13.18683254129816
